[
    {
        "Altitude(m)": 607897.6418871398,
        "Argument of Periapsis(deg)": 0.0,
        "Eccentricity": 0.0,
        "Inclination(deg)": 60.0,
        "Latitude(deg)": -14.293088172403776,
        "Longitude(deg)": -103.38125153360664,
        "Mean Anomaly(deg)": 343.6364,
        "RAAN(deg)": 5.0,
        "Satellite Name": "Test1 43",
        "Satellite Number": 43,
        "Semi-Major Axis(m)": 6980739.136638005,
        "Time(s)": 0
    },
    {
        "Altitude(m)": 607750.8422576385,
        "Argument of Periapsis(deg)": 0.00010418945913296404,
        "Eccentricity": 0.0,
        "Inclination(deg)": 60.0,
        "Latitude(deg)": -13.75892971114571,
        "Longitude(deg)": -103.09418216218582,
        "Mean Anomaly(deg)": 344.2565061454618,
        "RAAN(deg)": 4.999579950860257,
        "Satellite Name": "Test1 43",
        "Satellite Number": 43,
        "Semi-Major Axis(m)": 6980739.136638005,
        "Time(s)": 10
    },
    {
        "Altitude(m)": 607606.5669000655,
        "Argument of Periapsis(deg)": 0.0002083789182659281,
        "Eccentricity": 0.0,
        "Inclination(deg)": 60.0,
        "Latitude(deg)": -13.224296498032887,
        "Longitude(deg)": -102.8085892073927,
        "Mean Anomaly(deg)": 344.8766122909236,
        "RAAN(deg)": 4.999159901720515,
        "Satellite Name": "Test1 43",
        "Satellite Number": 43,
        "Semi-Major Axis(m)": 6980739.136638005,
        "Time(s)": 20
    },
    {
        "Altitude(m)": 607464.8601869722,
        "Argument of Periapsis(deg)": 0.00031256837739889213,
        "Eccentricity": 0.0,
        "Inclination(deg)": 60.0,
        "Latitude(deg)": -12.689208837655029,
        "Longitude(deg)": -102.52440798964032,
        "Mean Anomaly(deg)": 345.4967184363855,
        "RAAN(deg)": 4.998739852580773,
        "Satellite Name": "Test1 43",
        "Satellite Number": 43,
        "Semi-Major Axis(m)": 6980739.136638005,
        "Time(s)": 30
    },
    {
        "Altitude(m)": 607325.7652138289,
        "Argument of Periapsis(deg)": 0.0004167578365318562,
        "Eccentricity": 0.0,
        "Inclination(deg)": 60.0,
        "Latitude(deg)": -12.153686762052702,
        "Longitude(deg)": -102.2415741720045,
        "Mean Anomaly(deg)": 346.1168245818473,
        "RAAN(deg)": 4.99831980344103,
        "Satellite Name": "Test1 43",
        "Satellite Number": 43,
        "Semi-Major Axis(m)": 6980739.136638005,
        "Time(s)": 40
    },
    {
        "Altitude(m)": 607189.3237806989,
        "Argument of Periapsis(deg)": 0.0005209472956648203,
        "Eccentricity": 0.0,
        "Inclination(deg)": 60.0,
        "Latitude(deg)": -11.617750044657974,
        "Longitude(deg)": -101.9600247286903,
        "Mean Anomaly(deg)": 346.73693072730913,
        "RAAN(deg)": 4.997899754301287,
        "Satellite Name": "Test1 43",
        "Satellite Number": 43,
        "Semi-Major Axis(m)": 6980739.136638005,
        "Time(s)": 50
    },
    {
        "Altitude(m)": 607055.5763745648,
        "Argument of Periapsis(deg)": 0.0006251367547977843,
        "Eccentricity": 0.0,
        "Inclination(deg)": 60.0,
        "Latitude(deg)": -11.08141821388136,
        "Longitude(deg)": -101.67969740130142,
        "Mean Anomaly(deg)": 347.35703687277095,
        "RAAN(deg)": 4.9974797051615445,
        "Satellite Name": "Test1 43",
        "Satellite Number": 43,
        "Semi-Major Axis(m)": 6980739.136638005,
        "Time(s)": 60
    },
    {
        "Altitude(m)": 606924.5621522528,
        "Argument of Periapsis(deg)": 0.0007293262139307483,
        "Eccentricity": 0.0,
        "Inclination(deg)": 60.0,
        "Latitude(deg)": -10.544710566360997,
        "Longitude(deg)": -101.40053015575631,
        "Mean Anomaly(deg)": 347.97714301823277,
        "RAAN(deg)": 4.9970596560218015,
        "Satellite Name": "Test1 43",
        "Satellite Number": 43,
        "Semi-Major Axis(m)": 6980739.136638005,
        "Time(s)": 70
    },
    {
        "Altitude(m)": 606796.318924059,
        "Argument of Periapsis(deg)": 0.0008335156730637124,
        "Eccentricity": 0.0,
        "Inclination(deg)": 60.0,
        "Latitude(deg)": -10.007646179894206,
        "Longitude(deg)": -101.12246215269727,
        "Mean Anomaly(deg)": 348.5972491636946,
        "RAAN(deg)": 4.996639606882058,
        "Satellite Name": "Test1 43",
        "Satellite Number": 43,
        "Semi-Major Axis(m)": 6980739.136638005,
        "Time(s)": 80
    },
    {
        "Altitude(m)": 606670.883137952,
        "Argument of Periapsis(deg)": 0.0009377051321966765,
        "Eccentricity": 0.0,
        "Inclination(deg)": 60.0,
        "Latitude(deg)": -9.470243926068662,
        "Longitude(deg)": -100.84543320561535,
        "Mean Anomaly(deg)": 349.21735530915646,
        "RAAN(deg)": 4.996219557742316,
        "Satellite Name": "Test1 43",
        "Satellite Number": 43,
        "Semi-Major Axis(m)": 6980739.136638005,
        "Time(s)": 90
    },
    {
        "Altitude(m)": 606548.2898645293,
        "Argument of Periapsis(deg)": 0.0010418945913296407,
        "Eccentricity": 0.0,
        "Inclination(deg)": 60.0,
        "Latitude(deg)": -8.9325224826113,
        "Longitude(deg)": -100.5693832395353,
        "Mean Anomaly(deg)": 349.8374614546183,
        "RAAN(deg)": 4.995799508602573,
        "Satellite Name": "Test1 43",
        "Satellite Number": 43,
        "Semi-Major Axis(m)": 6980739.136638005,
        "Time(s)": 100
    },
    {
        "Altitude(m)": 606428.5727825665,
        "Argument of Periapsis(deg)": 0.0011460840504626045,
        "Eccentricity": 0.0,
        "Inclination(deg)": 60.0,
        "Latitude(deg)": -8.394500345470947,
        "Longitude(deg)": -100.29425326310619,
        "Mean Anomaly(deg)": 350.4575676000801,
        "RAAN(deg)": 4.995379459462831,
        "Satellite Name": "Test1 43",
        "Satellite Number": 43,
        "Semi-Major Axis(m)": 6980739.136638005,
        "Time(s)": 110
    },
    {
        "Altitude(m)": 606311.7641653147,
        "Argument of Periapsis(deg)": 0.0012502735095955685,
        "Eccentricity": 0.0,
        "Inclination(deg)": 60.0,
        "Latitude(deg)": -7.856195840651793,
        "Longitude(deg)": -100.01998482831912,
        "Mean Anomaly(deg)": 351.0776737455419,
        "RAAN(deg)": 4.994959410323088,
        "Satellite Name": "Test1 43",
        "Satellite Number": 43,
        "Semi-Major Axis(m)": 6980739.136638005,
        "Time(s)": 120
    },
    {
        "Altitude(m)": 606197.8948674224,
        "Argument of Periapsis(deg)": 0.0013544629687285324,
        "Eccentricity": 0.0,
        "Inclination(deg)": 60.0,
        "Latitude(deg)": -7.317627135815174,
        "Longitude(deg)": -99.74651949069855,
        "Mean Anomaly(deg)": 351.69777989100373,
        "RAAN(deg)": 4.994539361183345,
        "Satellite Name": "Test1 43",
        "Satellite Number": 43,
        "Semi-Major Axis(m)": 6980739.136638005,
        "Time(s)": 130
    },
    {
        "Altitude(m)": 606086.9943126012,
        "Argument of Periapsis(deg)": 0.0014586524278614966,
        "Eccentricity": 0.0,
        "Inclination(deg)": 60.0,
        "Latitude(deg)": -6.778812251663005,
        "Longitude(deg)": -99.47379978280959,
        "Mean Anomaly(deg)": 352.3178860364656,
        "RAAN(deg)": 4.994119312043602,
        "Satellite Name": "Test1 43",
        "Satellite Number": 43,
        "Semi-Major Axis(m)": 6980739.136638005,
        "Time(s)": 140
    },
    {
        "Altitude(m)": 605979.0904819664,
        "Argument of Periapsis(deg)": 0.0015628418869944607,
        "Eccentricity": 0.0,
        "Inclination(deg)": 60.0,
        "Latitude(deg)": -6.239769073121068,
        "Longitude(deg)": -99.20176867530597,
        "Mean Anomaly(deg)": 352.93799218192737,
        "RAAN(deg)": 4.99369926290386,
        "Satellite Name": "Test1 43",
        "Satellite Number": 43,
        "Semi-Major Axis(m)": 6980739.136638005,
        "Time(s)": 150
    },
    {
        "Altitude(m)": 605874.2099030948,
        "Argument of Periapsis(deg)": 0.0016670313461274247,
        "Eccentricity": 0.0,
        "Inclination(deg)": 60.0,
        "Latitude(deg)": -5.70051536033597,
        "Longitude(deg)": -98.93036903836219,
        "Mean Anomaly(deg)": 353.5580983273893,
        "RAAN(deg)": 4.993279213764118,
        "Satellite Name": "Test1 43",
        "Satellite Number": 43,
        "Semi-Major Axis(m)": 6980739.136638005,
        "Time(s)": 160
    },
    {
        "Altitude(m)": 605772.3776397937,
        "Argument of Periapsis(deg)": 0.0017712208052603888,
        "Eccentricity": 0.0,
        "Inclination(deg)": 60.0,
        "Latitude(deg)": -5.161068759500477,
        "Longitude(deg)": -98.65954461633468,
        "Mean Anomaly(deg)": 354.17820447285106,
        "RAAN(deg)": 4.992859164624375,
        "Satellite Name": "Test1 43",
        "Satellite Number": 43,
        "Semi-Major Axis(m)": 6980739.136638005,
        "Time(s)": 170
    },
    {
        "Altitude(m)": 605673.6172825873,
        "Argument of Periapsis(deg)": 0.001875410264393353,
        "Eccentricity": 0.0,
        "Inclination(deg)": 60.0,
        "Latitude(deg)": -4.621446813523415,
        "Longitude(deg)": -98.38923948987562,
        "Mean Anomaly(deg)": 354.79831061831294,
        "RAAN(deg)": 4.992439115484632,
        "Satellite Name": "Test1 43",
        "Satellite Number": 43,
        "Semi-Major Axis(m)": 6980739.136638005,
        "Time(s)": 180
    },
    {
        "Altitude(m)": 605577.9509399319,
        "Argument of Periapsis(deg)": 0.0019795997235263173,
        "Eccentricity": 0.0,
        "Inclination(deg)": 60.0,
        "Latitude(deg)": -4.081666972557883,
        "Longitude(deg)": -98.11939753834308,
        "Mean Anomaly(deg)": -4.5815832362252715,
        "RAAN(deg)": 4.992019066344889,
        "Satellite Name": "Test1 43",
        "Satellite Number": 43,
        "Semi-Major Axis(m)": 6980739.136638005,
        "Time(s)": 190
    }
]